GUOWANG GROUP 20 OBJECT*
1 68132U 26047D   26092.57516225 -.00000084  00000+0  51916-4 0  9999
2 68132  50.0067 333.7806 0000710 245.0360 115.0463 13.86594040  2909
GUOWANG GROUP 20 OBJECT*
1 68133U 26047E   26093.00475373 -.00000089  00000+0  48671-4 0  9996
2 68133  50.0078 332.0369 0000826  23.1230 336.9704 13.85521979  2976
GUOWANG GROUP 20 OBJECT*
1 68134U 26047F   26092.56694514 -.00000033  00000+0  95092-4 0  9995
2 68134  50.0093 333.7419 0000629 256.4099 103.6728 13.87190720  2909
GUOWANG GROUP 20 OBJECT*
1 68135U 26047G   26092.56949596  .00000009  00000+0  13110-3 0  9991
2 68135  50.0112 333.7611 0000927 224.2337 135.8486 13.87026021  2916
GUOWANG GROUP 20 OBJECT*
1 68136U 26047H   26092.49226754 -.00000088  00000+0  48251-4 0  9991
2 68136  50.0086 334.0113 0000909 305.9014  54.1799 13.87381469  2894
GUOWANG GROUP 20 OBJECT*
1 68137U 26047J   26092.70556402 -.00000116  00000+0  24623-4 0  9991
2 68137  50.0058 333.1317 0000669 182.6269 177.4625 13.87066479  2938
CZ-8A R/B               
1 68138U 26047K   26093.87783603  .00000064  00000+0  11708-3 0  9996
2 68138  49.9533 326.5212 0044766 224.7555 134.9736 14.12233179  3110
SHIYAN-30 03            
1 68139U 26048A   26093.73683641  .00004836  00000+0  47325-3 0  9999
2 68139  35.0015 353.9636 0002500  57.0069 303.0876 14.91771069  3243
SHIYAN-30 04            
1 68140U 26048B   26093.73753059  .00004650  00000+0  45525-3 0  9996
2 68140  34.9930 353.9615 0000965  60.9473 299.1328 14.91768933  3244
CZ-2D R/B               
1 68141U 26048C   26093.88430825  .00002902  00000+0  25858-3 0  9991
2 68141  35.1309 352.7065 0015769 187.7640 172.2825 14.95592809  3273
STARLINK-36604          
1 68142U 26049A   26093.83335647  .00083302  00000+0  55431-3 0  9997
2 68142  97.2847 114.3348 0001749  88.8009  44.4494 15.75173186  4678
STARLINK-36995          
1 68143U 26049B   26093.83335647 -.00022692  00000+0 -15146-3 0  9994
2 68143  97.2852 114.3453 0001379  99.5324  59.7487 15.75222753  4665
STARLINK-37020          
1 68144U 26049C   26093.58336806 -.01913338  00000+0 -13480-1 0  9999
2 68144  97.2857 114.1059 0001630  90.4670 144.5127 15.77205468  4621
STARLINK-36244          
1 68145U 26049D   26093.81903596  .00228069  00000+0  14879-2 0  9993
2 68145  97.2845 114.2964 0001576 105.8081 254.3359 15.75214906  3374
STARLINK-36980          
1 68146U 26049E   26093.79353189  .00383993  00000+0  19094-2 0  9990
2 68146  97.2853 114.3324 0001255 109.8752 250.2651 15.80920327  3375
STARLINK-37055          
1 68147U 26049F   26093.79503978  .00103583  00000+0  53565-3 0  9991
2 68147  97.2857 114.3301 0001201  61.2246 298.9143 15.80794142  3374
